STARLINK-31306          
1 58876U 24020A   25317.55440963 -.00010240  00000+0 -33443-3 0  9994
2 58876  53.1592 141.6218 0001370 112.3799 247.7347 15.30165961101471
STARLINK-31326          
1 58877U 24020B   25317.54502558 -.00006545  00000+0 -20920-3 0  9992
2 58877  53.1586 142.2657 0002108  86.6728 273.4514 15.30173012100280
STARLINK-31300          
1 58878U 24020C   25317.49225704 -.00005013  00000+0 -15727-3 0  9990
2 58878  53.1539 141.9437 0002833  80.3564 279.7757 15.30186399100285
STARLINK-31296          
1 58879U 24020D   25317.95044766  .00003296  00000+0  12329-3 0  9993
2 58879  53.1608 114.2479 0000374 192.0882 168.0110 15.30217129100711
STARLINK-31328          
1 58880U 24020E   25317.88410472 -.00000378  00000+0 -63149-6 0  9997
2 58880  53.1568 125.1157 0001388  75.2426 284.8728 15.30197282100555
STARLINK-31260          
1 58881U 24020F   25317.89154883 -.00009673  00000+0 -31519-3 0  9990
2 58881  53.1574 140.1669 0001936  95.9580 264.1641 15.30164895100343
STARLINK-31323          
1 58882U 24020G   25317.89471531 -.00001433  00000+0 -36292-4 0  9993
2 58882  53.1593 140.1863 0001649  89.3043 270.8147 15.30169113100346
STARLINK-31209          
1 58883U 24020H   25317.50599166 -.00001825  00000+0 -49550-4 0  9993
2 58883  53.1584 142.0308 0001652  95.2756 264.8433 15.30170753100289
STARLINK-31315          
1 58884U 24020J   25317.87985519 -.00003485  00000+0 -10569-3 0  9996
2 58884  53.1627 114.3951 0000461  37.2363 322.8670 15.30176894100708
STARLINK-31318          
1 58885U 24020K   25317.54186340 -.00000433  00000+0 -24589-5 0  9995
2 58885  53.1641 142.2398 0002992  96.1020 264.0321 15.30179733100283
STARLINK-31320          
1 58886U 24020L   25317.90104057 -.00002231  00000+0 -63246-4 0  9991
2 58886  53.1606 140.2252 0000710  79.5219 280.5862 15.30189646100347
STARLINK-31321          
1 58887U 24020M   25317.90422079 -.00002530  00000+0 -73396-4 0  9998
2 58887  53.1616 140.2453 0001998  77.9603 282.1621 15.30165716101502
STARLINK-31007          
1 58889U 24020P   25317.90738664 -.00002614  00000+0 -76227-4 0  9999
2 58889  53.1590 140.2636 0001913 101.5062 258.6154 15.30162870100346
STARLINK-31230          
1 58890U 24020Q   25317.89840133 -.00001535  00000+0 -39742-4 0  9996
2 58890  53.1610 138.1071 0001412  95.7655 264.3507 15.30172166100374
STARLINK-31245          
1 58891U 24020R   25317.69018087 -.00004461  00000+0 -13877-3 0  9991
2 58891  53.1568 100.0798 0001223 101.0459 259.0680 15.30159716102049
STARLINK-31254          
1 58892U 24020S   25318.33335648  .00329106  00000+0  57852-2 0  9993
2 58892  53.1524 135.5285 0009593 238.9740 271.2171 15.48752651  5844
