[{"OBJECT_NAME":"STARLINK-31306","OBJECT_ID":"2024-020A","EPOCH":"2025-11-13T13:18:20.992032","MEAN_MOTION":15.30165961,"ECCENTRICITY":0.000137,"INCLINATION":53.1592,"RA_OF_ASC_NODE":141.6218,"ARG_OF_PERICENTER":112.3799,"MEAN_ANOMALY":247.7347,"EPHEMERIS_TYPE":0,"CLASSIFICATION_TYPE":"U","NORAD_CAT_ID":58876,"ELEMENT_SET_NO":999,"REV_AT_EPOCH":10147,"BSTAR":-0.00033443,"MEAN_MOTION_DOT":-0.0001024,"MEAN_MOTION_DDOT":0},{"OBJECT_NAME":"STARLINK-31326","OBJECT_ID":"2024-020B","EPOCH":"2025-11-13T13:04:50.210112","MEAN_MOTION":15.30173012,"ECCENTRICITY":0.0002108,"INCLINATION":53.1586,"RA_OF_ASC_NODE":142.2657,"ARG_OF_PERICENTER":86.6728,"MEAN_ANOMALY":273.4514,"EPHEMERIS_TYPE":0,"CLASSIFICATION_TYPE":"U","NORAD_CAT_ID":58877,"ELEMENT_SET_NO":999,"REV_AT_EPOCH":10028,"BSTAR":-0.0002092,"MEAN_MOTION_DOT":-6.545e-5,"MEAN_MOTION_DDOT":0},{"OBJECT_NAME":"STARLINK-31300","OBJECT_ID":"2024-020C","EPOCH":"2025-11-13T11:48:51.008256","MEAN_MOTION":15.30186399,"ECCENTRICITY":0.0002833,"INCLINATION":53.1539,"RA_OF_ASC_NODE":141.9437,"ARG_OF_PERICENTER":80.3564,"MEAN_ANOMALY":279.7757,"EPHEMERIS_TYPE":0,"CLASSIFICATION_TYPE":"U","NORAD_CAT_ID":58878,"ELEMENT_SET_NO":999,"REV_AT_EPOCH":10028,"BSTAR":-0.00015727,"MEAN_MOTION_DOT":-5.013e-5,"MEAN_MOTION_DDOT":0},{"OBJECT_NAME":"STARLINK-31296","OBJECT_ID":"2024-020D","EPOCH":"2025-11-13T22:48:38.677824","MEAN_MOTION":15.30217129,"ECCENTRICITY":3.747e-5,"INCLINATION":53.1608,"RA_OF_ASC_NODE":114.2479,"ARG_OF_PERICENTER":192.0882,"MEAN_ANOMALY":168.011,"EPHEMERIS_TYPE":0,"CLASSIFICATION_TYPE":"U","NORAD_CAT_ID":58879,"ELEMENT_SET_NO":999,"REV_AT_EPOCH":10071,"BSTAR":0.0001232894,"MEAN_MOTION_DOT":3.296e-5,"MEAN_MOTION_DDOT":0},{"OBJECT_NAME":"STARLINK-31328","OBJECT_ID":"2024-020E","EPOCH":"2025-11-13T21:13:06.647808","MEAN_MOTION":15.30197282,"ECCENTRICITY":0.00013882,"INCLINATION":53.1568,"RA_OF_ASC_NODE":125.1157,"ARG_OF_PERICENTER":75.2426,"MEAN_ANOMALY":284.8728,"EPHEMERIS_TYPE":0,"CLASSIFICATION_TYPE":"U","NORAD_CAT_ID":58880,"ELEMENT_SET_NO":999,"REV_AT_EPOCH":10055,"BSTAR":-6.31495e-7,"MEAN_MOTION_DOT":-3.78e-6,"MEAN_MOTION_DDOT":0},{"OBJECT_NAME":"STARLINK-31260","OBJECT_ID":"2024-020F","EPOCH":"2025-11-13T21:23:49.818912","MEAN_MOTION":15.30164895,"ECCENTRICITY":0.00019363,"INCLINATION":53.1574,"RA_OF_ASC_NODE":140.1669,"ARG_OF_PERICENTER":95.958,"MEAN_ANOMALY":264.1641,"EPHEMERIS_TYPE":0,"CLASSIFICATION_TYPE":"U","NORAD_CAT_ID":58881,"ELEMENT_SET_NO":999,"REV_AT_EPOCH":10034,"BSTAR":-0.00031519004,"MEAN_MOTION_DOT":-9.673e-5,"MEAN_MOTION_DDOT":0},{"OBJECT_NAME":"STARLINK-31323","OBJECT_ID":"2024-020G","EPOCH":"2025-11-13T21:28:23.402784","MEAN_MOTION":15.30169113,"ECCENTRICITY":0.0001649,"INCLINATION":53.1593,"RA_OF_ASC_NODE":140.1863,"ARG_OF_PERICENTER":89.3043,"MEAN_ANOMALY":270.8147,"EPHEMERIS_TYPE":0,"CLASSIFICATION_TYPE":"U","NORAD_CAT_ID":58882,"ELEMENT_SET_NO":999,"REV_AT_EPOCH":10034,"BSTAR":-3.6291807e-5,"MEAN_MOTION_DOT":-1.433e-5,"MEAN_MOTION_DDOT":0},{"OBJECT_NAME":"STARLINK-31209","OBJECT_ID":"2024-020H","EPOCH":"2025-11-13T12:08:37.679424","MEAN_MOTION":15.30170753,"ECCENTRICITY":0.0001652,"INCLINATION":53.1584,"RA_OF_ASC_NODE":142.0308,"ARG_OF_PERICENTER":95.2756,"MEAN_ANOMALY":264.8433,"EPHEMERIS_TYPE":0,"CLASSIFICATION_TYPE":"U","NORAD_CAT_ID":58883,"ELEMENT_SET_NO":999,"REV_AT_EPOCH":10028,"BSTAR":-4.955e-5,"MEAN_MOTION_DOT":-1.825e-5,"MEAN_MOTION_DDOT":0},{"OBJECT_NAME":"STARLINK-31315","OBJECT_ID":"2024-020J","EPOCH":"2025-11-13T21:06:59.488416","MEAN_MOTION":15.30176894,"ECCENTRICITY":4.615e-5,"INCLINATION":53.1627,"RA_OF_ASC_NODE":114.3951,"ARG_OF_PERICENTER":37.2363,"MEAN_ANOMALY":322.867,"EPHEMERIS_TYPE":0,"CLASSIFICATION_TYPE":"U","NORAD_CAT_ID":58884,"ELEMENT_SET_NO":999,"REV_AT_EPOCH":10070,"BSTAR":-0.00010569018,"MEAN_MOTION_DOT":-3.485e-5,"MEAN_MOTION_DDOT":0},{"OBJECT_NAME":"STARLINK-31318","OBJECT_ID":"2024-020K","EPOCH":"2025-11-13T13:00:16.997760","MEAN_MOTION":15.30179733,"ECCENTRICITY":0.0002992,"INCLINATION":53.1641,"RA_OF_ASC_NODE":142.2398,"ARG_OF_PERICENTER":96.102,"MEAN_ANOMALY":264.0321,"EPHEMERIS_TYPE":0,"CLASSIFICATION_TYPE":"U","NORAD_CAT_ID":58885,"ELEMENT_SET_NO":999,"REV_AT_EPOCH":10028,"BSTAR":-2.4589e-6,"MEAN_MOTION_DOT":-4.33e-6,"MEAN_MOTION_DDOT":0},{"OBJECT_NAME":"STARLINK-31320","OBJECT_ID":"2024-020L","EPOCH":"2025-11-13T21:37:29.905248","MEAN_MOTION":15.30189646,"ECCENTRICITY":7.102e-5,"INCLINATION":53.1606,"RA_OF_ASC_NODE":140.2252,"ARG_OF_PERICENTER":79.5219,"MEAN_ANOMALY":280.5862,"EPHEMERIS_TYPE":0,"CLASSIFICATION_TYPE":"U","NORAD_CAT_ID":58886,"ELEMENT_SET_NO":999,"REV_AT_EPOCH":10034,"BSTAR":-6.324552e-5,"MEAN_MOTION_DOT":-2.231e-5,"MEAN_MOTION_DDOT":0},{"OBJECT_NAME":"STARLINK-31321","OBJECT_ID":"2024-020M","EPOCH":"2025-11-13T21:42:04.676256","MEAN_MOTION":15.30165716,"ECCENTRICITY":0.0001998,"INCLINATION":53.1616,"RA_OF_ASC_NODE":140.2453,"ARG_OF_PERICENTER":77.9603,"MEAN_ANOMALY":282.1621,"EPHEMERIS_TYPE":0,"CLASSIFICATION_TYPE":"U","NORAD_CAT_ID":58887,"ELEMENT_SET_NO":999,"REV_AT_EPOCH":10150,"BSTAR":-7.3395998e-5,"MEAN_MOTION_DOT":-2.53e-5,"MEAN_MOTION_DDOT":0},{"OBJECT_NAME":"STARLINK-31007","OBJECT_ID":"2024-020P","EPOCH":"2025-11-13T21:46:38.205696","MEAN_MOTION":15.3016287,"ECCENTRICITY":0.00019136,"INCLINATION":53.159,"RA_OF_ASC_NODE":140.2636,"ARG_OF_PERICENTER":101.5062,"MEAN_ANOMALY":258.6154,"EPHEMERIS_TYPE":0,"CLASSIFICATION_TYPE":"U","NORAD_CAT_ID":58889,"ELEMENT_SET_NO":999,"REV_AT_EPOCH":10034,"BSTAR":-7.6227434e-5,"MEAN_MOTION_DOT":-2.614e-5,"MEAN_MOTION_DDOT":0},{"OBJECT_NAME":"STARLINK-31230","OBJECT_ID":"2024-020Q","EPOCH":"2025-11-13T21:33:41.874912","MEAN_MOTION":15.30172166,"ECCENTRICITY":0.00014124,"INCLINATION":53.161,"RA_OF_ASC_NODE":138.1071,"ARG_OF_PERICENTER":95.7655,"MEAN_ANOMALY":264.3507,"EPHEMERIS_TYPE":0,"CLASSIFICATION_TYPE":"U","NORAD_CAT_ID":58890,"ELEMENT_SET_NO":999,"REV_AT_EPOCH":10037,"BSTAR":-3.9741618e-5,"MEAN_MOTION_DOT":-1.535e-5,"MEAN_MOTION_DDOT":0},{"OBJECT_NAME":"STARLINK-31245","OBJECT_ID":"2024-020R","EPOCH":"2025-11-13T16:33:51.627168","MEAN_MOTION":15.30159716,"ECCENTRICITY":0.00012238,"INCLINATION":53.1568,"RA_OF_ASC_NODE":100.0798,"ARG_OF_PERICENTER":101.0459,"MEAN_ANOMALY":259.068,"EPHEMERIS_TYPE":0,"CLASSIFICATION_TYPE":"U","NORAD_CAT_ID":58891,"ELEMENT_SET_NO":999,"REV_AT_EPOCH":10204,"BSTAR":-0.00013876883,"MEAN_MOTION_DOT":-4.461e-5,"MEAN_MOTION_DDOT":0},{"OBJECT_NAME":"STARLINK-31254","OBJECT_ID":"2024-020S","EPOCH":"2025-11-14T08:00:01.999872","MEAN_MOTION":15.48752651,"ECCENTRICITY":0.00095936,"INCLINATION":53.1524,"RA_OF_ASC_NODE":135.5285,"ARG_OF_PERICENTER":238.974,"MEAN_ANOMALY":271.2171,"EPHEMERIS_TYPE":0,"CLASSIFICATION_TYPE":"U","NORAD_CAT_ID":58892,"ELEMENT_SET_NO":999,"REV_AT_EPOCH":584,"BSTAR":0.0057852157,"MEAN_MOTION_DOT":0.00329106,"MEAN_MOTION_DDOT":0}]
